GLOBALSTAR M023         
1 25621U 99004A   24281.56858925 -.00000003  00000+0  56065-3 0  9991
2 25621  52.0096 102.6597 0009181 290.7785 135.5816 12.62478091183828
GLOBALSTAR M040         
1 25622U 99004B   24281.51571622 -.00000079  00000+0  13762-3 0  9993
2 25622  51.9896 106.5975 0000975 136.8783 250.5057 12.61985635183357
GLOBALSTAR M022         
1 25649U 99012A   24281.40617566 -.00000102  00000+0 -17637-3 0  9990
2 25649  52.0029 258.0716 0002738  32.0635 134.9817 12.02488897145961
GLOBALSTAR M041         
1 25650U 99012B   24281.54755989 -.00000098  00000+0 -16424-3 0  9996
2 25650  52.0001 131.4348 0002383 166.9183 193.1716 11.96658539148039
GLOBALSTAR M046         
1 25651U 99012C   24281.55143403 -.00000083  00000+0  67409-4 0  9993
2 25651  52.0043 217.0321 0002616  96.3515  74.4907 12.09397778153097
GLOBALSTAR M037         
1 25652U 99012D   24281.31959632 -.00000045  00000+0  32961-3 0  9999
2 25652  51.9993 234.1285 0002182 359.7171 164.8885 12.62420285179334
